SENTINEL-6              
1 46984U 20086A   24196.94861739 -.00000046  00000+0  66307-4 0  9992
2 46984  66.0404 153.6096 0007939 270.1438  89.8668 12.80929866170381
